STARLINK-31070          
1 58639U 23203X   25245.15886223 -.00001404  00000+0 -41539-4 0  9990
2 58639  42.9980  52.1962 0000712 287.0636  73.0138 15.27569210 94724
STARLINK-31090          
1 58640U 23203Y   25245.13655508  .00001063  00000+0  48147-4 0  9991
2 58640  42.9975  44.2443 0000811  63.8540 296.2395 15.27570327 94826
STARLINK-31113          
1 58668U 23211B   25245.21673971  .00000372  00000+0  23039-4 0  9998
2 58668  43.0034  69.3742 0000892 288.7089  71.3666 15.27573206 93640
STARLINK-31128          
1 58669U 23211C   25244.51418221  .00001711  00000+0  71685-4 0  9994
2 58669  43.0094  73.5540 0001687 267.1418  92.9240 15.27582867 93538
STARLINK-31083          
1 58670U 23211D   25245.21289710  .00000292  00000+0  20129-4 0  9993
2 58670  43.0011  69.3422 0001529 281.4354  78.6326 15.27565534 93644
STARLINK-30828          
1 58671U 23211E   25244.98216868  .00000759  00000+0  37108-4 0  9994
2 58671  43.0029  71.0478 0001730 276.9504  83.1151 15.27578798 93604
STARLINK-31104          
1 58672U 23211F   25245.20901865  .00003217  00000+0  12634-3 0  9997
2 58672  43.0014  69.3089 0001616 269.4209  90.6457 15.27586763 94928
STARLINK-31131          
1 58673U 23211G   25244.76046042  .00000895  00000+0  42054-4 0  9994
2 58673  43.0024  61.4471 0001170 283.9634  76.1088 15.27574527 94975
STARLINK-31124          
1 58674U 23211H   25245.22059072  .00031452  00000+0  11485-2 0  9999
2 58674  43.0014  69.4048 0000918 260.2338  99.8410 15.27554786 93640
STARLINK-31126          
1 58675U 23211J   25245.20516995  .00000937  00000+0  43573-4 0  9999
2 58675  43.0027  69.2730 0001303 279.4186  80.6518 15.27578114 93641
STARLINK-31066          
1 58676U 23211K   25245.12815207  .00004532  00000+0  35016-3 0  9996
2 58676  43.0028 179.2759 0001222 268.6945  91.3757 15.02554929 93622
STARLINK-31058          
1 58677U 23211L   25245.22316105  .00001346  00000+0  58449-4 0  9997
2 58677  43.0039  69.4219 0001652 270.8073  89.2589 15.27576373 93645
STARLINK-31125          
1 58678U 23211M   25244.98473645  .00001731  00000+0  72384-4 0  9995
2 58678  43.0019  71.0685 0001511 279.1181  80.9500 15.27589346 94776
STARLINK-31110          
1 58679U 23211N   25244.96546413 -.00000457  00000+0 -70886-5 0  9990
2 58679  43.0036  70.9267 0001221 281.4151  78.6564 15.27586436 93603
STARLINK-31112          
1 58680U 23211P   25244.84240651 -.00004240  00000+0 -14456-3 0  9997
2 58680  43.0031  71.7234 0001258 295.2694  64.8027 15.27596544 94768
STARLINK-31147          
1 58681U 23211Q   25244.79240975  .00008577  00000+0  32044-3 0  9999
2 58681  43.0044  72.2036 0002175 270.8336  89.2266 15.27621064 93570
