[{"OBJECT_NAME":"STARLINK-31070","OBJECT_ID":"2023-203X","EPOCH":"2025-09-02T03:48:45.696672","MEAN_MOTION":15.2756921,"ECCENTRICITY":7.129e-5,"INCLINATION":42.998,"RA_OF_ASC_NODE":52.1962,"ARG_OF_PERICENTER":287.0636,"MEAN_ANOMALY":73.0138,"EPHEMERIS_TYPE":0,"CLASSIFICATION_TYPE":"U","NORAD_CAT_ID":58639,"ELEMENT_SET_NO":999,"REV_AT_EPOCH":9472,"BSTAR":-4.1539215e-5,"MEAN_MOTION_DOT":-1.404e-5,"MEAN_MOTION_DDOT":0},{"OBJECT_NAME":"STARLINK-31090","OBJECT_ID":"2023-203Y","EPOCH":"2025-09-02T03:16:38.358912","MEAN_MOTION":15.27570327,"ECCENTRICITY":8.111e-5,"INCLINATION":42.9975,"RA_OF_ASC_NODE":44.2443,"ARG_OF_PERICENTER":63.854,"MEAN_ANOMALY":296.2395,"EPHEMERIS_TYPE":0,"CLASSIFICATION_TYPE":"U","NORAD_CAT_ID":58640,"ELEMENT_SET_NO":999,"REV_AT_EPOCH":9482,"BSTAR":4.8146604e-5,"MEAN_MOTION_DOT":1.063e-5,"MEAN_MOTION_DDOT":0},{"OBJECT_NAME":"STARLINK-31113","OBJECT_ID":"2023-211B","EPOCH":"2025-09-02T05:12:06.310944","MEAN_MOTION":15.27573206,"ECCENTRICITY":8.921e-5,"INCLINATION":43.0034,"RA_OF_ASC_NODE":69.3742,"ARG_OF_PERICENTER":288.7089,"MEAN_ANOMALY":71.3666,"EPHEMERIS_TYPE":0,"CLASSIFICATION_TYPE":"U","NORAD_CAT_ID":58668,"ELEMENT_SET_NO":999,"REV_AT_EPOCH":9364,"BSTAR":2.3038825e-5,"MEAN_MOTION_DOT":3.72e-6,"MEAN_MOTION_DDOT":0},{"OBJECT_NAME":"STARLINK-31128","OBJECT_ID":"2023-211C","EPOCH":"2025-09-01T12:20:25.342944","MEAN_MOTION":15.27582867,"ECCENTRICITY":0.00016872,"INCLINATION":43.0094,"RA_OF_ASC_NODE":73.554,"ARG_OF_PERICENTER":267.1418,"MEAN_ANOMALY":92.924,"EPHEMERIS_TYPE":0,"CLASSIFICATION_TYPE":"U","NORAD_CAT_ID":58669,"ELEMENT_SET_NO":999,"REV_AT_EPOCH":9353,"BSTAR":7.1685241e-5,"MEAN_MOTION_DOT":1.711e-5,"MEAN_MOTION_DDOT":0},{"OBJECT_NAME":"STARLINK-31083","OBJECT_ID":"2023-211D","EPOCH":"2025-09-02T05:06:34.309440","MEAN_MOTION":15.27565534,"ECCENTRICITY":0.00015299,"INCLINATION":43.0011,"RA_OF_ASC_NODE":69.3422,"ARG_OF_PERICENTER":281.4354,"MEAN_ANOMALY":78.6326,"EPHEMERIS_TYPE":0,"CLASSIFICATION_TYPE":"U","NORAD_CAT_ID":58670,"ELEMENT_SET_NO":999,"REV_AT_EPOCH":9364,"BSTAR":2.0129491e-5,"MEAN_MOTION_DOT":2.92e-6,"MEAN_MOTION_DDOT":0},{"OBJECT_NAME":"STARLINK-30828","OBJECT_ID":"2023-211E","EPOCH":"2025-09-01T23:34:19.373952","MEAN_MOTION":15.27578798,"ECCENTRICITY":0.00017309,"INCLINATION":43.0029,"RA_OF_ASC_NODE":71.0478,"ARG_OF_PERICENTER":276.9504,"MEAN_ANOMALY":83.1151,"EPHEMERIS_TYPE":0,"CLASSIFICATION_TYPE":"U","NORAD_CAT_ID":58671,"ELEMENT_SET_NO":999,"REV_AT_EPOCH":9360,"BSTAR":3.7107514e-5,"MEAN_MOTION_DOT":7.59e-6,"MEAN_MOTION_DDOT":0},{"OBJECT_NAME":"STARLINK-31104","OBJECT_ID":"2023-211F","EPOCH":"2025-09-02T05:00:59.211360","MEAN_MOTION":15.27586763,"ECCENTRICITY":0.00016169,"INCLINATION":43.0014,"RA_OF_ASC_NODE":69.3089,"ARG_OF_PERICENTER":269.4209,"MEAN_ANOMALY":90.6457,"EPHEMERIS_TYPE":0,"CLASSIFICATION_TYPE":"U","NORAD_CAT_ID":58672,"ELEMENT_SET_NO":999,"REV_AT_EPOCH":9492,"BSTAR":0.00012633752,"MEAN_MOTION_DOT":3.217e-5,"MEAN_MOTION_DDOT":0},{"OBJECT_NAME":"STARLINK-31131","OBJECT_ID":"2023-211G","EPOCH":"2025-09-01T18:15:03.780288","MEAN_MOTION":15.27574527,"ECCENTRICITY":0.00011707,"INCLINATION":43.0024,"RA_OF_ASC_NODE":61.4471,"ARG_OF_PERICENTER":283.9634,"MEAN_ANOMALY":76.1088,"EPHEMERIS_TYPE":0,"CLASSIFICATION_TYPE":"U","NORAD_CAT_ID":58673,"ELEMENT_SET_NO":999,"REV_AT_EPOCH":9497,"BSTAR":4.2054498e-5,"MEAN_MOTION_DOT":8.95e-6,"MEAN_MOTION_DDOT":0},{"OBJECT_NAME":"STARLINK-31124","OBJECT_ID":"2023-211H","EPOCH":"2025-09-02T05:17:39.038208","MEAN_MOTION":15.27554786,"ECCENTRICITY":9.184e-5,"INCLINATION":43.0014,"RA_OF_ASC_NODE":69.4048,"ARG_OF_PERICENTER":260.2338,"MEAN_ANOMALY":99.841,"EPHEMERIS_TYPE":0,"CLASSIFICATION_TYPE":"U","NORAD_CAT_ID":58674,"ELEMENT_SET_NO":999,"REV_AT_EPOCH":9364,"BSTAR":0.0011484906,"MEAN_MOTION_DOT":0.00031452,"MEAN_MOTION_DDOT":0},{"OBJECT_NAME":"STARLINK-31126","OBJECT_ID":"2023-211J","EPOCH":"2025-09-02T04:55:26.683680","MEAN_MOTION":15.27578114,"ECCENTRICITY":0.00013032,"INCLINATION":43.0027,"RA_OF_ASC_NODE":69.273,"ARG_OF_PERICENTER":279.4186,"MEAN_ANOMALY":80.6518,"EPHEMERIS_TYPE":0,"CLASSIFICATION_TYPE":"U","NORAD_CAT_ID":58675,"ELEMENT_SET_NO":999,"REV_AT_EPOCH":9364,"BSTAR":4.3573023e-5,"MEAN_MOTION_DOT":9.37e-6,"MEAN_MOTION_DDOT":0},{"OBJECT_NAME":"STARLINK-31066","OBJECT_ID":"2023-211K","EPOCH":"2025-09-02T03:04:32.338848","MEAN_MOTION":15.02554929,"ECCENTRICITY":0.00012225,"INCLINATION":43.0028,"RA_OF_ASC_NODE":179.2759,"ARG_OF_PERICENTER":268.6945,"MEAN_ANOMALY":91.3757,"EPHEMERIS_TYPE":0,"CLASSIFICATION_TYPE":"U","NORAD_CAT_ID":58676,"ELEMENT_SET_NO":999,"REV_AT_EPOCH":9362,"BSTAR":0.0003501621,"MEAN_MOTION_DOT":4.532e-5,"MEAN_MOTION_DDOT":0},{"OBJECT_NAME":"STARLINK-31058","OBJECT_ID":"2023-211L","EPOCH":"2025-09-02T05:21:21.114720","MEAN_MOTION":15.27576373,"ECCENTRICITY":0.00016521,"INCLINATION":43.0039,"RA_OF_ASC_NODE":69.4219,"ARG_OF_PERICENTER":270.8073,"MEAN_ANOMALY":89.2589,"EPHEMERIS_TYPE":0,"CLASSIFICATION_TYPE":"U","NORAD_CAT_ID":58677,"ELEMENT_SET_NO":999,"REV_AT_EPOCH":9364,"BSTAR":5.8448996e-5,"MEAN_MOTION_DOT":1.346e-5,"MEAN_MOTION_DDOT":0},{"OBJECT_NAME":"STARLINK-31125","OBJECT_ID":"2023-211M","EPOCH":"2025-09-01T23:38:01.229280","MEAN_MOTION":15.27589346,"ECCENTRICITY":0.00015111,"INCLINATION":43.0019,"RA_OF_ASC_NODE":71.0685,"ARG_OF_PERICENTER":279.1181,"MEAN_ANOMALY":80.95,"EPHEMERIS_TYPE":0,"CLASSIFICATION_TYPE":"U","NORAD_CAT_ID":58678,"ELEMENT_SET_NO":999,"REV_AT_EPOCH":9477,"BSTAR":7.2384218e-5,"MEAN_MOTION_DOT":1.731e-5,"MEAN_MOTION_DDOT":0},{"OBJECT_NAME":"STARLINK-31110","OBJECT_ID":"2023-211N","EPOCH":"2025-09-01T23:10:16.100832","MEAN_MOTION":15.27586436,"ECCENTRICITY":0.00012216,"INCLINATION":43.0036,"RA_OF_ASC_NODE":70.9267,"ARG_OF_PERICENTER":281.4151,"MEAN_ANOMALY":78.6564,"EPHEMERIS_TYPE":0,"CLASSIFICATION_TYPE":"U","NORAD_CAT_ID":58679,"ELEMENT_SET_NO":999,"REV_AT_EPOCH":9360,"BSTAR":-7.088602e-6,"MEAN_MOTION_DOT":-4.57e-6,"MEAN_MOTION_DDOT":0},{"OBJECT_NAME":"STARLINK-31112","OBJECT_ID":"2023-211P","EPOCH":"2025-09-01T20:13:03.922464","MEAN_MOTION":15.27596544,"ECCENTRICITY":0.00012582,"INCLINATION":43.0031,"RA_OF_ASC_NODE":71.7234,"ARG_OF_PERICENTER":295.2694,"MEAN_ANOMALY":64.8027,"EPHEMERIS_TYPE":0,"CLASSIFICATION_TYPE":"U","NORAD_CAT_ID":58680,"ELEMENT_SET_NO":999,"REV_AT_EPOCH":9476,"BSTAR":-0.00014455822,"MEAN_MOTION_DOT":-4.24e-5,"MEAN_MOTION_DDOT":0},{"OBJECT_NAME":"STARLINK-31147","OBJECT_ID":"2023-211Q","EPOCH":"2025-09-01T19:01:04.202400","MEAN_MOTION":15.27621064,"ECCENTRICITY":0.00021753,"INCLINATION":43.0044,"RA_OF_ASC_NODE":72.2036,"ARG_OF_PERICENTER":270.8336,"MEAN_ANOMALY":89.2266,"EPHEMERIS_TYPE":0,"CLASSIFICATION_TYPE":"U","NORAD_CAT_ID":58681,"ELEMENT_SET_NO":999,"REV_AT_EPOCH":9357,"BSTAR":0.00032044012,"MEAN_MOTION_DOT":8.577e-5,"MEAN_MOTION_DDOT":0}]
